NORAD_CAT_ID,OBJECT_NAME,OBJECT_TYPE,EPOCH,MEAN_MOTION,ECCENTRICITY,INCLINATION,RA_OF_ASC_NODE,ARG_OF_PERICENTER,MEAN_ANOMALY,BSTAR,MEAN_MOTION_DOT,MEAN_MOTION_DDOT,TLE_LINE0,TLE_LINE1,TLE_LINE2,SEMIMAJOR_AXIS,PERIOD,APOGEE,PERIGEE,DECAYED
52457.0,STARLINK-3899,PAYLOAD,2022-10-20 04:35:07,15.08836014,0.0001516,53.2178,219.9773,68.9954,291.1201,0.00033479,5.044e-05,0.0,0 STARLINK-3899,1 52457U 22049G   22293.19106393  .00005044  00000-0  33479-3 0  9992,2 52457  53.2178 219.9773 0001516  68.9954 291.1201 15.08836014 25608,6917.893,95.438,540.806,538.7090000000002,0.0
52457.0,STARLINK-3899,PAYLOAD,2022-10-20 12:32:03,15.08847072,0.0001524,53.2181,218.4907,68.6009,291.5146,0.00044325,6.775e-05,0.0,0 STARLINK-3899,1 52457U 22049G   22293.52226053  .00006775  00000-0  44325-3 0  9999,2 52457  53.2181 218.4907 0001524  68.6009 291.5146 15.08847072 25655,6917.859,95.437,540.778,538.669,0.0
52457.0,STARLINK-3899,PAYLOAD,2022-10-21 04:25:54,15.08844884,0.0001706,53.2174,215.5175,73.0049,287.113,0.000207,3.008e-05,0.0,0 STARLINK-3899,1 52457U 22049G   22294.18466160  .00003008  00000-0  20700-3 0  9994,2 52457  53.2174 215.5175 0001706  73.0049 287.1130 15.08844884 25751,6917.865,95.437,540.911,538.55,0.0
52457.0,STARLINK-3899,PAYLOAD,2022-10-21 12:22:50,15.08842241,0.0001624,53.2181,214.0296,74.9859,285.1312,0.00010224,1.34e-05,0.0,0 STARLINK-3899,1 52457U 22049G   22294.51586150  .00001340  00000-0  10224-3 0  9990,2 52457  53.2181 214.0296 0001624  74.9859 285.1312 15.08842241 25648,6917.874,95.437,540.862,538.615,0.0
52457.0,STARLINK-3899,PAYLOAD,2022-10-22 04:16:41,15.08849413,0.0001554,53.2189,211.0566,72.91199999999998,287.2042,0.00013569,1.873e-05,0.0,0 STARLINK-3899,1 52457U 22049G   22295.17825682  .00001873  00000-0  13569-3 0  9995,2 52457  53.2189 211.0566 0001554  72.9120 287.2042 15.08849413 25746,6917.852,95.437,540.7919999999998,538.6419999999998,0.0
52457.0,STARLINK-3899,PAYLOAD,2022-10-22 18:35:09,15.08840733,0.0001664,53.2175,208.3815,69.035,291.082,6.871899999999999e-05,8.06e-06,0.0,0 STARLINK-3899,1 52457U 22049G   22295.77442098  .00000806  00000-0  68719-4 0  9990,2 52457  53.2175 208.3815 0001664  69.0350 291.0820 15.08840733 25991,6917.878000000002,95.438,540.894,538.592,0.0
52457.0,STARLINK-3899,PAYLOAD,2022-10-23 04:07:28,15.08845542,0.0001604,53.2187,206.5974,67.9354,292.1808,7.8318e-05,9.59e-06,0.0,0 STARLINK-3899,1 52457U 22049G   22296.17185736  .00000959  00000-0  78318-4 0  9993,2 52457  53.2187 206.5974 0001604  67.9354 292.1808 15.08845542 25895,6917.863,95.437,540.8380000000002,538.619,0.0
52457.0,STARLINK-3899,PAYLOAD,2022-10-23 18:25:55,15.08853564,0.0001494,53.2195,203.9218,69.9773,290.138,0.00012634,1.724e-05,0.0,0 STARLINK-3899,1 52457U 22049G   22296.76800705  .00001724  00000-0  12634-3 0  9997,2 52457  53.2195 203.9218 0001494  69.9773 290.1380 15.08853564 25986,6917.839,95.437,540.737,538.67,0.0
52457.0,STARLINK-3899,PAYLOAD,2022-10-24 02:22:51,15.08856579,0.0001541999999999,53.2183,202.435,66.1414,293.974,0.00016944,2.411e-05,0.0,0 STARLINK-3899,1 52457U 22049G   22297.09920592  .00002411  00000-0  16944-3 0  9993,2 52457  53.2183 202.4350 0001542  66.1414 293.9740 15.08856579 26036,6917.83,95.437,540.761,538.628,0.0
52457.0,STARLINK-3899,PAYLOAD,2022-10-24 18:16:44,15.08827981,0.0001718,53.2206,199.4614,70.0054,290.1123,-0.00013641,-2.458e-05,0.0,0 STARLINK-3899,1 52457U 22049G   22297.76162216 -.00002458  00000-0 -13641-3 0  9992,2 52457  53.2206 199.4614 0001718  70.0054 290.1123 15.08827981 26296,6917.917,95.438,540.971,538.594,0.0
52457.0,STARLINK-3899,PAYLOAD,2022-10-25 03:49:03,15.08818863,0.0001564,53.2181,197.677,63.6746,296.4407,-0.00024892,-4.245e-05,0.0,0 STARLINK-3899,1 52457U 22049G   22298.15907022 -.00004245  00000-0 -24892-3 0  9994,2 52457  53.2181 197.6770 0001564  63.6746 296.4407 15.08818863 26356,6917.945,95.439,540.8919999999998,538.7280000000002,0.0
52457.0,STARLINK-3899,PAYLOAD,2022-10-25 10:10:35,15.08835538,0.0001307,53.2188,196.488,62.1489,297.9635,-1.7833e-05,-5.72e-06,0.0,0 STARLINK-3899,1 52457U 22049G   22298.42402294 -.00000572  00000-0 -17833-4 0  9992,2 52457  53.2188 196.4880 0001307  62.1489 297.9635 15.08835538 26396,6917.894,95.438,540.663,538.855,0.0
52457.0,STARLINK-3899,PAYLOAD,2022-10-26 02:04:27,15.08826533,0.0001521999999999,53.2183,193.5168,71.7276,288.3882,-6.957899999999999e-05,-1.395e-05,0.0,0 STARLINK-3899,1 52457U 22049G   22299.08643236 -.00001395  00000-0 -69579-4 0  9996,2 52457  53.2183 193.5168 0001522  71.7276 288.3882 15.08826533 26334,6917.922,95.438,540.839,538.734,0.0
52457.0,STARLINK-3899,PAYLOAD,2022-10-26 19:33:42,15.08826916,0.0001565999999999,53.2197,190.245,70.6212,289.4949,0.00035435,5.354e-05,0.0,0 STARLINK-3899,1 52457U 22049G   22299.81507850  .00005354  00000-0  35435-3 0  9998,2 52457  53.2197 190.2450 0001566  70.6212 289.4949 15.08826916 26446,6917.92,95.438,540.869,538.702,0.0
52457.0,STARLINK-3899,PAYLOAD,2022-10-27 01:55:15,15.08842803,0.0001624,53.2184,189.0542,62.8862,297.2295,0.00041629,6.344e-05,0.0,0 STARLINK-3899,1 52457U 22049G   22300.08003702  .00006344  00000-0  41629-3 0  9999,2 52457  53.2184 189.0542 0001624  62.8862 297.2295 15.08842803 26645,6917.871999999999,95.437,540.86,538.613,0.0
52457.0,STARLINK-3899,PAYLOAD,2022-10-27 09:52:10,15.08854469,0.0001575999999999,53.2178,187.5684,66.869,293.2468,0.00056977,8.795e-05,0.0,0 STARLINK-3899,1 52457U 22049G   22300.41123268  .00008795  00000-0  56977-3 0  9990,2 52457  53.2178 187.5684 0001576  66.8690 293.2468 15.08854469 26534,6917.8359999999975,95.437,540.7909999999998,538.611,0.0
52457.0,STARLINK-3899,PAYLOAD,2022-10-27 19:24:29,15.08857561,0.0001548,53.2172,185.7842,68.4932,291.6225,0.00049453,7.595e-05,0.0,0 STARLINK-3899,1 52457U 22049G   22300.80866959  .00007595  00000-0  49453-3 0  9992,2 52457  53.2172 185.7842 0001548  68.4932 291.6225 15.08857561 26595,6917.8269999999975,95.436,540.763,538.621,0.0
52457.0,STARLINK-3899,PAYLOAD,2022-10-28 00:10:38,15.0885634,0.0001551,53.2174,184.892,67.6842,292.4315,0.00040391,6.149e-05,0.0,0 STARLINK-3899,1 52457U 22049G   22301.00738876  .00006149  00000-0  40391-3 0  9997,2 52457  53.2174 184.8920 0001551  67.6842 292.4315 15.08856340 26626,6917.83,95.437,540.768,538.622,0.0
52457.0,STARLINK-3899,PAYLOAD,2022-10-28 19:15:15,15.088632,0.0001574,53.2172,181.3235,68.2059,291.91,0.00030634,4.594e-05,0.0,0 STARLINK-3899,1 52457U 22049G   22301.80225756  .00004594  00000-0  30634-3 0  9994,2 52457  53.2172 181.3235 0001574  68.2059 291.9100 15.08863200 26749,6917.809,95.436,540.763,538.586,0.0
52457.0,STARLINK-3899,PAYLOAD,2022-10-28 20:50:38,15.08862191,0.0001551999999999,53.2174,181.0264,65.8785,294.2369,0.00027079,4.027e-05,0.0,0 STARLINK-3899,1 52457U 22049G   22301.86849736  .00004027  00000-0  27079-3 0  9990,2 52457  53.2174 181.0264 0001552  65.8785 294.2369 15.08862191 26915,6917.813,95.436,540.751,538.604,0.0
52457.0,STARLINK-3899,PAYLOAD,2022-10-29 00:01:24,15.08847806,0.0001561,53.2177,180.4319,60.9317,299.1831,-1.6078e-05,-5.44e-06,0.0,0 STARLINK-3899,1 52457U 22049G   22302.00098210 -.00000544  00000-0 -16078-4 0  9990,2 52457  53.2177 180.4319 0001561  60.9317 299.1831 15.08847806 26935,6917.857,95.437,540.8009999999998,538.6419999999998,0.0
52457.0,STARLINK-3899,PAYLOAD,2022-10-29 20:41:25,15.08853169,0.0001452,53.2181,176.5669,68.5818,291.5329,8.2785e-05,1.03e-05,0.0,0 STARLINK-3899,1 52457U 22049G   22302.86209550  .00001030  00000-0  82785-4 0  9992,2 52457  53.2181 176.5669 0001452  68.5818 291.5329 15.08853169 26907,6917.84,95.437,540.71,538.701,0.0
52457.0,STARLINK-3899,PAYLOAD,2022-10-29 23:52:11,15.08857198,0.0001503,53.218,175.9719,71.3641,288.7514,0.00019191,2.769e-05,0.0,0 STARLINK-3899,1 52457U 22049G   22302.99457381  .00002769  00000-0  19191-3 0  9993,2 52457  53.2180 175.9719 0001503  71.3641 288.7514 15.08857198 26920,6917.828,95.436,540.7330000000002,538.653,0.0
52457.0,STARLINK-3899,PAYLOAD,2022-10-30 20:32:11,15.0884701,0.0001441999999999,53.2174,172.105,79.1704,280.945,1.9749e-05,2.6e-07,0.0,0 STARLINK-3899,1 52457U 22049G   22303.85569144  .00000026  00000-0  19749-4 0  9994,2 52457  53.2174 172.1050 0001442  79.1704 280.9450 15.08847010 27058,6917.859,95.437,540.722,538.726,0.0
52457.0,STARLINK-3899,PAYLOAD,2022-10-31 01:18:22,15.08828978,0.0001486,53.2188,171.2148,68.058,292.057,-0.00015959,-2.826e-05,0.0,0 STARLINK-3899,1 52457U 22049G   22304.05442880 -.00002826  00000-0 -15959-3 0  9994,2 52457  53.2188 171.2148 0001486  68.0580 292.0570 15.08828978 27080,6917.9140000000025,95.438,540.807,538.751,0.0
52457.0,STARLINK-3899,PAYLOAD,2022-10-31 18:47:37,15.08832657,0.0001531999999999,53.2189,167.9438,68.1317,291.9838,-2.2817e-05,-6.51e-06,0.0,0 STARLINK-3899,1 52457U 22049G   22304.78306840 -.00000651  00000-0 -22817-4 0  9995,2 52457  53.2189 167.9438 0001532  68.1317 291.9838 15.08832657 27350,6917.903,95.438,540.828,538.7080000000002,0.0
52457.0,STARLINK-3899,PAYLOAD,2022-11-01 01:09:09,15.08837864,0.0001469,53.2186,166.7539,63.7953,296.319,2.1273e-05,5.1e-07,0.0,0 STARLINK-3899,1 52457U 22049G   22305.04802456  .00000051  00000-0  21273-4 0  9996,2 52457  53.2186 166.7539 0001469  63.7953 296.3190 15.08837864 27391,6917.887,95.438,540.768,538.736,0.0
52457.0,STARLINK-3899,PAYLOAD,2022-11-01 18:38:24,15.08828553,0.0001479,53.2187,163.4828,65.7089,294.4058,9.3047e-05,1.193e-05,0.0,0 STARLINK-3899,1 52457U 22049G   22305.77667154  .00001193  00000-0  93047-4 0  9996,2 52457  53.2187 163.4828 0001479  65.7089 294.4058 15.08828553 27342,6917.915,95.438,540.804,538.757,0.0
52457.0,STARLINK-3899,PAYLOAD,2022-11-02 07:21:29,15.08834139,0.0001509,53.2187,161.10399999999996,63.8477,296.2671,0.00028049,4.178e-05,0.0,0 STARLINK-3899,1 52457U 22049G   22306.30659074  .00004178  00000-0  28049-3 0  9993,2 52457  53.2187 161.1040 0001509  63.8477 296.2671 15.08834139 27424,6917.898,95.438,540.807,538.719,0.0
